{
    "links": {
        "self": "http://www.neowsapp.com/rest/v1/neo/3799800?api_key=iIulBulltgU6a56xZRHN4H3l9WmuAYTsLGpBGhQ2"
    },
    "id": "3799800",
    "neo_reference_id": "3799800",
    "name": "(2018 EB1)",
    "designation": "2018 EB1",
    "nasa_jpl_url": "http://ssd.jpl.nasa.gov/sbdb.cgi?sstr=3799800",
    "absolute_magnitude_h": 24.8,
    "estimated_diameter": {
        "kilometers": {
            "estimated_diameter_min": 0.0291443905,
            "estimated_diameter_max": 0.0651688382
        },
        "meters": {
            "estimated_diameter_min": 29.1443904535,
            "estimated_diameter_max": 65.1688382168
        },
        "miles": {
            "estimated_diameter_min": 0.018109479,
            "estimated_diameter_max": 0.0404940262
        },
        "feet": {
            "estimated_diameter_min": 95.6180819754,
            "estimated_diameter_max": 213.8085311752
        }
    },
    "is_potentially_hazardous_asteroid": false,
    "close_approach_data": [
        {
            "close_approach_date": "2018-03-01",
            "close_approach_date_full": "2018-Mar-01 19:07",
            "epoch_date_close_approach": 1519931220000,
            "relative_velocity": {
                "kilometers_per_second": "19.7440493442",
                "kilometers_per_hour": "71078.5776391326",
                "miles_per_hour": "44165.4639780488"
            },
            "miss_distance": {
                "astronomical": "0.0484445975",
                "lunar": "18.8449484275",
                "kilometers": "7247208.599007325",
                "miles": "4503206.606958085"
            },
            "orbiting_body": "Earth"
        },
        {
            "close_approach_date": "2194-02-24",
            "close_approach_date_full": "2194-Feb-24 15:45",
            "epoch_date_close_approach": 7073538300000,
            "relative_velocity": {
                "kilometers_per_second": "16.4410543569",
                "kilometers_per_hour": "59187.7956848105",
                "miles_per_hour": "36776.9944909313"
            },
            "miss_distance": {
                "astronomical": "0.1614288557",
                "lunar": "62.7958248673",
                "kilometers": "24149412.969257359",
                "miles": "15005749.3932511942"
            },
            "orbiting_body": "Earth"
        }
    ],
    "orbital_data": {
        "orbit_id": "1",
        "orbit_determination_date": "2018-03-09 13:42:06",
        "first_observation_date": "2018-03-07",
        "last_observation_date": "2018-03-09",
        "data_arc_in_days": 2,
        "observations_used": 19,
        "orbit_uncertainty": "8",
        "minimum_orbit_intersection": ".00642612",
        "jupiter_tisserand_invariant": "4.474",
        "epoch_osculation": "2458184.5",
        "eccentricity": ".5158121042561055",
        "semi_major_axis": "1.41926074029344",
        "inclination": "25.44474459266044",
        "ascending_node_longitude": "165.1514572490373",
        "orbital_period": "617.5778497199",
        "perihelion_distance": ".6871888713546027",
        "perihelion_argument": "267.2378697997154",
        "aphelion_distance": "2.151332609232278",
        "perihelion_time": "2458123.955333660327",
        "mean_anomaly": "35.29284590139981",
        "mean_motion": ".5829224609711579",
        "equinox": "J2000",
        "orbit_class": {
            "orbit_class_type": "APO",
            "orbit_class_description": "Near-Earth asteroid orbits which cross the Earth’s orbit similar to that of 1862 Apollo",
            "orbit_class_range": "a (semi-major axis) > 1.0 AU; q (perihelion) < 1.017 AU"
        }
    },
    "is_sentry_object": false
}